ORBCOMM FM115           
1 41186U 15081H   25102.94211276  .00001957  00000+0  41771-3 0  9991
2 41186  46.9994 349.8339 0000255 141.4063 218.6843 14.62351503498220
ORBCOMM FM108           
1 41187U 15081J   25102.59401652  .00001767  00000+0  41753-3 0  9991
2 41187  47.0054  56.7064 0002937 356.6690   3.4175 14.57987054497221
ORBCOMM FM117           
1 41188U 15081K   25103.17708156  .00002125  00000+0  49451-3 0  9998
2 41188  47.0008  52.7377 0003197   7.7694 352.3240 14.57998135497402
ORBCOMM FM116           
1 41189U 15081L   25102.82564512  .00001620  00000+0  38552-3 0  9995
2 41189  47.0008 144.2673 0000337 123.6743 236.4175 14.58022699496115
